NORAD_CAT_ID,OBJECT_NAME,OBJECT_TYPE,EPOCH,MEAN_MOTION,ECCENTRICITY,INCLINATION,RA_OF_ASC_NODE,ARG_OF_PERICENTER,MEAN_ANOMALY,BSTAR,MEAN_MOTION_DOT,MEAN_MOTION_DDOT,TLE_LINE0,TLE_LINE1,TLE_LINE2,SEMIMAJOR_AXIS,PERIOD,APOGEE,PERIGEE,DECAYED
37853,RAX-2,PAYLOAD,2021-10-06 21:12:40,15.05802775,0.0163242,101.7156,248.1678,120.708,241.0329,0.00014174,2.621e-05,0.0,0 RAX-2,1 37853U 11061D   21279.88380271  .00002621  00000-0  14174-3 0  9994,2 37853 101.7156 248.1678 0163242 120.7080 241.0329 15.05802775542496,6927.18,95.63,662.125,435.964,0.0
37853,RAX-2,PAYLOAD,2021-10-07 11:33:49,15.05806269,0.016323,101.7158,249.0733,118.9451,242.824,0.00015078,2.799e-05,0.0,0 RAX-2,1 37853U 11061D   21280.48182242  .00002799  00000-0  15078-3 0  9990,2 37853 101.7158 249.0733 0163230 118.9451 242.8240 15.05806269542581,6927.169,95.63,662.1060000000001,435.962,0.0
37853,RAX-2,PAYLOAD,2021-10-07 21:07:55,15.05809263,0.0163209,101.7159,249.6769,117.7642,244.0226,0.00016377,3.055e-05,0.0,0 RAX-2,1 37853U 11061D   21280.88050099  .00003055  00000-0  16377-3 0  9997,2 37853 101.7159 249.6769 0163209 117.7642 244.0226 15.05809263543128,6927.16,95.63,662.082,435.967,0.0
37853,RAX-2,PAYLOAD,2021-10-08 11:29:03,15.05812792,0.0163185,101.7161,250.5825,115.9928,245.8194,0.00016901,3.158e-05,0.0,0 RAX-2,1 37853U 11061D   21281.47851785  .00003158  00000-0  16901-3 0  9991,2 37853 101.7161 250.5825 0163185 115.9928 245.8194 15.05812792542735,6927.149,95.62899999999999,662.055,435.973,0.0
37853,RAX-2,PAYLOAD,2021-10-08 21:03:09,15.05815259,0.016315,101.7162,251.1863,114.806,247.0221,0.00017148,3.206e-05,0.0,0 RAX-2,1 37853U 11061D   21281.87719462  .00003206  00000-0  17148-3 0  9998,2 37853 101.7162 251.1863 0163150 114.8060 247.0221 15.05815259542794,6927.141,95.62899999999999,662.023,435.99,0.0
37853,RAX-2,PAYLOAD,2021-10-09 03:25:53,15.05816878,0.016314,101.7164,251.5888,114.0179,247.8205,0.00017253,3.227e-05,0.0,0 RAX-2,1 37853U 11061D   21282.14297870  .00003227  00000-0  17253-3 0  9993,2 37853 101.7164 251.5888 0163140 114.0179 247.8205 15.05816878543316,6927.1359999999995,95.62899999999999,662.0110000000002,435.99199999999996,0.0
37853,RAX-2,PAYLOAD,2021-10-09 11:24:17,15.05819637,0.0163134,101.7165,252.0919,113.0356,248.8151,0.00018247,3.423e-05,0.0,0 RAX-2,1 37853U 11061D   21282.47520808  .00003423  00000-0  18247-3 0  9991,2 37853 101.7165 252.0919 0163134 113.0356 248.8151 15.05819637542885,6927.128000000002,95.62899999999999,661.998,435.98800000000006,0.0
37853,RAX-2,PAYLOAD,2021-10-10 11:19:31,15.05827085,0.0163101,101.7168,253.6014,110.0736,251.8113,0.00020112,3.79e-05,0.0,0 RAX-2,1 37853U 11061D   21283.47189325  .00003790  00000-0  20112-3 0  9998,2 37853 101.7168 253.6014 0163101 110.0736 251.8113 15.05827085543513,6927.105,95.62899999999999,661.952,435.98800000000006,0.0
37853,RAX-2,PAYLOAD,2021-10-10 20:53:36,15.05831086,0.0163085,101.71700000000001,254.2051,108.8858,253.0114,0.00021892,4.141e-05,0.0,0 RAX-2,1 37853U 11061D   21283.87056522  .00004141  00000-0  21892-3 0  9991,2 37853 101.7170 254.2051 0163085 108.8858 253.0114 15.05831086543099,6927.093000000003,95.62799999999999,661.928,435.98699999999997,0.0
37853,RAX-2,PAYLOAD,2021-10-11 11:14:44,15.05838552,0.0163043,101.7172,255.1107,107.1059,254.8082,0.00028194,5.381e-05,0.0,0 RAX-2,1 37853U 11061D   21284.46857064  .00005381  00000-0  28194-3 0  9996,2 37853 101.7172 255.1107 0163043 107.1059 254.8082 15.05838552543180,6927.07,95.62799999999999,661.8760000000002,435.994,0.0
37853,RAX-2,PAYLOAD,2021-10-11 19:13:08,15.05838357,0.0163091,101.7173,255.6142,106.1265,255.7968,0.00022483,4.258e-05,0.0,0 RAX-2,1 37853U 11061D   21284.80079647  .00004258  00000-0  22483-3 0  9994,2 37853 101.7173 255.6142 0163091 106.1265 255.7968 15.05838357543711,6927.07,95.62799999999999,661.91,435.961,0.0
37853,RAX-2,PAYLOAD,2021-10-11 20:48:49,15.05838531,0.0163096,101.7173,255.7148,105.9285,255.9966,0.00021964,4.156e-05,0.0,0 RAX-2,1 37853U 11061D   21284.86724147  .00004156  00000-0  21964-3 0  9992,2 37853 101.7173 255.7148 0163096 105.9285 255.9966 15.05838531543244,6927.07,95.62799999999999,661.913,435.957,0.0
37853,RAX-2,PAYLOAD,2021-10-12 11:09:57,15.05845577,0.016309200000000003,101.7175,256.6205,104.1519,257.7875,0.00026945,5.137e-05,0.0,0 RAX-2,1 37853U 11061D   21285.46524368  .00005137  00000-0  26945-3 0  9996,2 37853 101.7175 256.6205 0163092 104.1519 257.7875 15.05845577543334,6927.0480000000025,95.62700000000001,661.888,435.939,0.0
37853,RAX-2,PAYLOAD,2021-10-12 19:08:21,15.05849482,0.0163098,101.7175,257.1237,103.1655,258.7812,0.00028165,5.378e-05,0.0,0 RAX-2,1 37853U 11061D   21285.79746553  .00005378  00000-0  28165-3 0  9997,2 37853 101.7175 257.1237 0163098 103.1655 258.7812 15.05849482543387,6927.036,95.62700000000001,661.88,435.923,0.0
37853,RAX-2,PAYLOAD,2021-10-13 04:42:25,15.05851694,0.0163119,101.7176,257.7276,101.9811,259.9737,0.00024575,4.672e-05,0.0,0 RAX-2,1 37853U 11061D   21286.19613123  .00004672  00000-0  24575-3 0  9995,2 37853 101.7176 257.7276 0163119 101.9811 259.9737 15.05851694543928,6927.03,95.62700000000001,661.888,435.902,0.0
37853,RAX-2,PAYLOAD,2021-10-13 11:05:08,15.05854085,0.0163133,101.7176,258.1302,101.1937,260.7661,0.00023754,4.511e-05,0.0,0 RAX-2,1 37853U 11061D   21286.46190755  .00004511  00000-0  23754-3 0  9996,2 37853 101.7176 258.1302 0163133 101.1937 260.7661 15.05854085543484,6927.022,95.62700000000001,661.89,435.885,0.0
37853,RAX-2,PAYLOAD,2021-10-13 20:39:13,15.05856728,0.0163144,101.7176,258.7341,100.0112,261.9553,0.00021417,4.051e-05,0.0,0 RAX-2,1 37853U 11061D   21286.86057143  .00004051  00000-0  21417-3 0  9996,2 37853 101.7176 258.7341 0163144 100.0112 261.9553 15.05856728543544,6927.014,95.62700000000001,661.8889999999999,435.869,0.0
37853,RAX-2,PAYLOAD,2021-10-14 12:36:00,15.058617800000002,0.0163176,101.7176,259.7407,98.0472,263.9289,0.00019061,3.588e-05,0.0,0 RAX-2,1 37853U 11061D   21287.52500884  .00003588  00000-0  19061-3 0  9991,2 37853 101.7176 259.7407 0163176  98.0472 263.9289 15.05861780543641,6926.999,95.626,661.8960000000002,435.832,0.0
37853,RAX-2,PAYLOAD,2021-10-14 15:47:22,15.05862742,0.0163179,101.7176,259.9421,97.6543,264.3235,0.00018835,3.544e-05,0.0,0 RAX-2,1 37853U 11061D   21287.65789602  .00003544  00000-0  18835-3 0  9992,2 37853 101.7176 259.9421 0163179  97.6543 264.3235 15.05862742544147,6926.996,95.626,661.895,435.827,0.0
37853,RAX-2,PAYLOAD,2021-10-14 18:58:43,15.058640900000002,0.0163176,101.7176,260.1434,97.2602,264.719,0.00019098,3.596e-05,0.0,0 RAX-2,1 37853U 11061D   21287.79078297  .00003596  00000-0  19098-3 0  9997,2 37853 101.7176 260.1434 0163176  97.2602 264.7190 15.05864090543684,6926.9919999999975,95.626,661.888,435.825,0.0
37853,RAX-2,PAYLOAD,2021-10-15 12:31:11,15.05869637,0.016319399999999998,101.7176,261.2506,95.0985,266.8876,0.00018309,3.441e-05,0.0,0 RAX-2,1 37853U 11061D   21288.52165991  .00003441  00000-0  18309-3 0  9990,2 37853 101.7176 261.2506 0163194  95.0985 266.8876 15.05869637543794,6926.975,95.626,661.8839999999999,435.795,0.0
37853,RAX-2,PAYLOAD,2021-10-15 15:42:32,15.05870525,0.016319399999999998,101.7176,261.4519,94.7049,267.2821,0.00018374,3.454e-05,0.0,0 RAX-2,1 37853U 11061D   21288.65454635  .00003454  00000-0  18374-3 0  9996,2 37853 101.7176 261.4519 0163194  94.7049 267.2821 15.05870525543813,6926.972,95.626,661.8810000000002,435.793,0.0
37853,RAX-2,PAYLOAD,2021-10-15 20:29:34,15.058714000000002,0.0163196,101.7176,261.7539,94.1156,267.8727,0.00017437,3.27e-05,0.0,0 RAX-2,1 37853U 11061D   21288.85387604  .00003270  00000-0  17437-3 0  9994,2 37853 101.7176 261.7539 0163196  94.1156 267.8727 15.05871400544324,6926.969,95.626,661.8789999999998,435.789,0.0
37853,RAX-2,PAYLOAD,2021-10-16 04:27:58,15.05873725,0.016319999999999998,101.7176,262.2572,93.1351,268.8548,0.00017401,3.263e-05,0.0,0 RAX-2,1 37853U 11061D   21289.18609130  .00003263  00000-0  17401-3 0  9995,2 37853 101.7176 262.2572 0163200  93.1351 268.8548 15.05873725543894,6926.9619999999995,95.626,661.875,435.779,0.0
37853,RAX-2,PAYLOAD,2021-10-16 12:26:21,15.05875553,0.0163199,101.7174,262.7603,92.1523,269.8386,0.00016672,3.119e-05,0.0,0 RAX-2,1 37853U 11061D   21289.51830623  .00003119  00000-0  16672-3 0  9994,2 37853 101.7174 262.7603 0163199  92.1523 269.8386 15.05875553543947,6926.956,95.625,661.8689999999998,435.774,0.0
37853,RAX-2,PAYLOAD,2021-10-17 04:23:08,15.0587887,0.0163196,101.7174,263.767,90.1891,271.8021,0.00015161,2.822e-05,0.0,0 RAX-2,1 37853U 11061D   21290.18273454  .00002822  00000-0  15161-3 0  9994,2 37853 101.7174 263.7670 0163196  90.1891 271.8021 15.05878870544524,6926.946,95.625,661.8560000000001,435.76599999999996,0.0
37853,RAX-2,PAYLOAD,2021-10-17 21:55:35,15.05885096,0.0163138,101.7176,264.8741,88.0219,273.9666,0.00017935,3.368e-05,0.0,0 RAX-2,1 37853U 11061D   21290.91360266  .00003368  00000-0  17935-3 0  9990,2 37853 101.7176 264.8741 0163138  88.0219 273.9666 15.05885096544158,6926.927,95.625,661.797,435.788,0.0
37853,RAX-2,PAYLOAD,2021-10-18 10:41:00,15.05890425,0.0163127,101.7175,265.6795,86.4577,275.5275,0.00021715,4.114e-05,0.0,0 RAX-2,1 37853U 11061D   21291.44514076  .00004114  00000-0  21715-3 0  9990,2 37853 101.7175 265.6795 0163127  86.4577 275.5275 15.05890425544710,6926.911,95.624,661.7719999999998,435.779,0.0
37853,RAX-2,PAYLOAD,2021-10-18 12:16:40,15.05890114,0.0163127,101.7175,265.7802,86.2611,275.7237,0.00020374,3.85e-05,0.0,0 RAX-2,1 37853U 11061D   21291.51158313  .00003850  00000-0  20374-3 0  9992,2 37853 101.7175 265.7802 0163127  86.2611 275.7237 15.05890114544240,6926.9119999999975,95.625,661.773,435.78,0.0
37853,RAX-2,PAYLOAD,2021-10-18 21:50:44,15.05892696,0.0163102,101.7175,266.384,85.0778,276.9032,0.00019932,3.762e-05,0.0,0 RAX-2,1 37853U 11061D   21291.91023578  .00003762  00000-0  19932-3 0  9990,2 37853 101.7175 266.3840 0163102  85.0778 276.9032 15.05892696544303,6926.904,95.624,661.748,435.79,0.0
